YAOGAN-31 H             
1 47693U 21014C   22286.68386113 -.00000030  00000+0  10000-3 0  9990
2 47693  63.4093  46.9156 0056447 352.3418   7.6735 13.45236992 80234
YAOGAN-31 J             
1 47695U 21014E   22286.68368185 -.00000030  00000+0  10000-3 0  9991
2 47695  63.4078  45.9425 0056351 352.5726   7.4456 13.45236431 80253
FLOCK 4S-41             
1 47698U 21006ER  22286.12563801  .00005848  00000+0  28821-3 0  9997
2 47698  97.4371 343.3512 0008313 220.8842 139.1769 15.18294916 95094
AMAZONIA 1              
1 47699U 21015A   22286.25551697 -.00000044  00000+0  00000+0 0  9991
2 47699  98.4532   1.7192 0001328  48.9717 311.1636 14.40828201 85260
SAI-1 NANOCONNECT-2     
1 47701U 21015C   22286.21380244  .00022706  00000+0  78079-3 0  9992
2 47701  97.4140   2.7020 0011220  42.5097 317.7010 15.30032817 90200
SINE (SINDHUNETRA)      
1 47702U 21015D   22286.48153653  .00019610  00000+0  69048-3 0  9990
2 47702  97.4185   2.8352 0011090  35.2691 324.9280 15.29293131 90208
SPACEBEE-87             
1 47703U 21015E   22286.18584397  .00129670  00000+0  24739-2 0  9996
2 47703  97.4046   5.0940 0006103 349.1763  10.9355 15.47654580 90382
SPACEBEE-86             
1 47704U 21015F   22286.65112179  .00124839  00000+0  22611-2 0  9993
2 47704  97.4021   5.8029 0005594 348.8375  11.2751 15.49172590 90450
SPACEBEE-85             
1 47705U 21015G   22285.21714619  .00157907  00000+0  28596-2 0  9992
2 47705  97.4035   4.3606 0005067 354.5921   5.5274 15.49055170 90255
SPACEBEE-84             
1 47706U 21015H   22286.42175042  .00131242  00000+0  23313-2 0  9994
2 47706  97.4027   5.6477 0005205 348.4325  11.6806 15.49706205 90443
SPACEBEE-83             
1 47707U 21015J   22286.78694305  .00137145  00000+0  23538-2 0  9999
2 47707  97.3991   6.0428 0005755 341.1301  18.9737 15.50658928 90508
SPACEBEE-82             
1 47708U 21015K   22286.20604024  .00162178  00000+0  26456-2 0  9992
2 47708  97.4009   5.7437 0004905 346.6203  13.4919 15.52003460 90434
SPACEBEE-81             
1 47709U 21015L   22286.20284022  .00169454  00000+0  26659-2 0  9994
2 47709  97.4017   5.9216 0004291 342.2716  17.8387 15.52993027 90366
SPACEBEE-78             
1 47710U 21015M   22286.19492898  .00219944  00000+0  31062-2 0  9990
2 47710  97.4002   6.2328 0005688 330.3105  29.7826 15.55784530 90462
SPACEBEE-76             
1 47711U 21015N   22286.64167944  .00228555  00000+0  28465-2 0  9993
2 47711  97.3978   7.1466 0004877 321.4710  38.6198 15.59144674 90564
SPACEBEE-80             
1 47712U 21015P   22286.46943126  .00182924  00000+0  27405-2 0  9990
2 47712  97.4024   6.3270 0004982 332.0751  28.0235 15.54297528 90491
SPACEBEE-77             
1 47714U 21015Q   22286.62597281  .00235842  00000+0  29908-2 0  9995
2 47714  97.4008   7.0351 0005546 317.5520  42.5307 15.58635972 90474
SPACEBEE-79             
1 47715U 21015R   22286.62536787  .00163733  00000+0  24981-2 0  9995
2 47715  97.4054   6.5253 0004620 332.8691  27.2320 15.53863704 90513
ARKTIKA-M 1             
1 47719U 21016A   22285.27041737  .00000101  00000+0  00000+0 0  9998
2 47719  63.1591 220.5037 6945292 270.4712 123.0218  2.00611561 11847
SDSAT                   
1 47721U 21015V   22286.48834150  .00031046  00000+0  10300-2 0  9992
2 47721  97.4164   2.2959 0008678   6.3021 353.8327 15.31155254 90161
STARLINK-2068           
1 47722U 21017A   22286.52520155  .00003230  00000+0  23569-3 0  9993
2 47722  53.0556  17.6351 0001750  59.5395 300.5767 15.06391536 90613
STARLINK-2107           
1 47723U 21017B   22286.46666521  .00000797  00000+0  72405-4 0  9994
2 47723  53.0549 312.6755 0001676  57.9968 302.1183 15.06388427 91488
STARLINK-2116           
1 47724U 21017C   22286.76890769  .00000732  00000+0  68087-4 0  9991
2 47724  53.0551 311.3157 0002204  55.7373 304.3825 15.06376750 90873
STARLINK-2125           
1 47725U 21017D   22286.53760261  .00004769  00000+0  33888-3 0  9994
2 47725  53.0558  22.3549 0002109  26.7858 333.3239 15.06396665 90491
STARLINK-2126           
1 47726U 21017E   22286.45652752  .00001850  00000+0  14315-3 0  9993
2 47726  53.0564  22.7153 0001898  41.8873 318.2261 15.06381965 90475
STARLINK-2129           
1 47727U 21017F   22286.73939135  .00005719  00000+0  40246-3 0  9998
2 47727  53.0531 301.4535 0002012  41.7751 318.3391 15.06407087 91014
STARLINK-2131           
1 47728U 21017G   22286.43071770  .00003446  00000+0  25020-3 0  9996
2 47728  53.0557  22.8252 0001469  63.6273 296.4867 15.06385368 90537
STARLINK-2132           
1 47729U 21017H   22286.59246627  .00010383  00000+0  71467-3 0  9993
2 47729  53.0544 327.3110 0002010  56.2142 303.9038 15.06411326 90657
STARLINK-2140           
1 47730U 21017J   22286.58599570  .00000276  00000+0  37457-4 0  9994
2 47730  53.0554  37.1343 0001863  60.3569 299.7605 15.06382331 90293
STARLINK-2141           
1 47731U 21017K   22286.59198045  .00009947  00000+0  68551-3 0  9990
2 47731  53.0558  32.1102 0001664  53.3082 306.8059 15.06410211 90378
STARLINK-2142           
1 47732U 21017L   22286.36578846  .00001404  00000+0  11317-3 0  9995
2 47732  53.0541 308.3678 0001811  50.9746 309.1404 15.06398568 91529
STARLINK-2143           
1 47733U 21017M   22286.64634507  .00002726  00000+0  20185-3 0  9995
2 47733  53.0572  41.8647 0001495  58.5273 301.5862 15.06394935 89600
STARLINK-2144           
1 47734U 21017N   22286.59934991  .00005923  00000+0  41617-3 0  9995
2 47734  53.0558  32.0741 0001430  69.2333 290.8810 15.06401305 90387
STARLINK-2146           
1 47735U 21017P   22286.81455037  .00007088  00000+0  49474-3 0  9993
2 47735  53.0554 316.2767 0002330  45.7597 314.3583 15.06361979 90819
STARLINK-2147           
1 47736U 21017Q   22286.63343851  .00003061  00000+0  22434-3 0  9998
2 47736  53.0559  21.9222 0001920  44.4019 315.7123 15.06389788 89888
STARLINK-2148           
1 47737U 21017R   22286.71027000  .00007561  00000+0  25235-3 0  9994
2 47737  53.0542 277.2280 0002298  53.3287 306.7924 15.32060604 91363
STARLINK-2149           
1 47738U 21017S   22286.54132676 -.00001571  00000+0 -86543-4 0  9999
2 47738  53.0557  22.5896 0001862  51.5929 308.5227 15.06400991 90546
STARLINK-2150           
1 47739U 21017T   22286.62929539  .00001474  00000+0  11788-3 0  9999
2 47739  53.0561  46.9436 0001288  68.8723 291.2403 15.06384756 89538
STARLINK-2152           
1 47740U 21017U   22286.47771735  .00004104  00000+0  29433-3 0  9996
2 47740  53.0563  32.6234 0001670  63.1936 296.9224 15.06387091 90393
STARLINK-2154           
1 47741U 21017V   22286.42610860  .00000739  00000+0  68495-4 0  9995
2 47741  53.0549  32.8575 0001479  79.0839 281.0316 15.06390279 90347
STARLINK-2156           
1 47742U 21017W   22286.43809716  .00000748  00000+0  69125-4 0  9998
2 47742  53.0565  22.7949 0001843  47.4264 312.6880 15.06381278 90532
STARLINK-2157           
1 47743U 21017X   22286.46389206  .00003420  00000+0  24847-3 0  9990
2 47743  53.0555  22.6861 0002232  37.1018 323.0125 15.06391089 90517
STARLINK-2158           
1 47744U 21017Y   22286.63617912  .00003481  00000+0  25251-3 0  9995
2 47744  53.0567  21.8532 0001626  53.0014 307.1124 15.06390631 89888
STARLINK-2159           
1 47745U 21017Z   22286.60303716  .00001610  00000+0  12695-3 0  9997
2 47745  53.0557  32.0437 0001620  64.0016 296.1139 15.06393698 89737
STARLINK-2160           
1 47746U 21017AA  22286.46296982  .00003841  00000+0  27674-3 0  9999
2 47746  53.0555  32.6897 0001348  54.3484 305.7630 15.06385504 90338
STARLINK-2161           
1 47747U 21017AB  22286.52654308  .00006483  00000+0  45361-3 0  9995
2 47747  53.0553  22.3853 0001768  46.5974 313.5162 15.06409139 90527
STARLINK-2162           
1 47748U 21017AC  22286.78456488  .00011604  00000+0  79635-3 0  9995
2 47748  53.0549  21.2321 0002046  43.4501 316.6649 15.06412102 89901
STARLINK-2163           
1 47749U 21017AD  22286.53392558  .00002429  00000+0  18200-3 0  9992
2 47749  53.0560  22.3642 0001770  56.8123 303.3035 15.06383164 90497
STARLINK-2164           
1 47750U 21017AE  22286.64449863  .00001660  00000+0  13033-3 0  9993
2 47750  53.0547  21.8594 0002012  59.4000 300.7188 15.06408285 89880
STARLINK-2168           
1 47751U 21017AF  22286.47586434  .00001155  00000+0  96398-4 0  9996
2 47751  53.0570  12.6246 0001821  45.8235 314.2903 15.06403324 90634
STARLINK-2169           
1 47752U 21017AG  22286.57585000  .00000683  00000+0  64747-4 0  9994
2 47752  53.0571  27.1715 0001250  93.1283 266.9849 15.06378839 90480
STARLINK-2170           
1 47753U 21017AH  22286.61777346  .00011852  00000+0  81278-3 0  9993
2 47753  53.0557  31.9947 0001721  57.3167 302.7988 15.06419166 89739
STARLINK-2171           
1 47754U 21017AJ  22286.45558608  .00006072  00000+0  42612-3 0  9991
2 47754  53.0541  32.7176 0001769  53.8649 306.2503 15.06406065 90350
STARLINK-2174           
1 47756U 21017AL  22286.45191098  .00002538  00000+0  18929-3 0  9996
2 47756  53.0566  32.7400 0001733  55.7646 304.3507 15.06386739 90390
STARLINK-2175           
1 47757U 21017AM  22286.56986696  .00009662  00000+0  66665-3 0  9990
2 47757  53.0543  32.1947 0001874  57.8258 302.2913 15.06401410 90352
STARLINK-2178           
1 47760U 21017AQ  22286.60211676  .00000110  00000+0  26297-4 0  9995
2 47760  53.0554  42.0613 0001463  66.8385 293.2758 15.06386880 89596
STARLINK-2179           
1 47761U 21017AR  22286.56617908  .00011158  00000+0  76650-3 0  9990
2 47761  53.0549  32.2192 0001315  87.9001 272.2138 15.06414345 90363
STARLINK-2180           
1 47762U 21017AS  22286.45973726  .00003917  00000+0  28174-3 0  9994
2 47762  53.0526  47.7128 0002339  98.3480 261.7775 15.06397529 90154
STARLINK-2181           
1 47763U 21017AT  22286.60810516  .00002548  00000+0  18995-3 0  9998
2 47763  53.0549  37.0319 0001633  57.0285 303.0861 15.06391797 89666
